NORAD_CAT_ID,OBJECT_NAME,OBJECT_TYPE,EPOCH,MEAN_MOTION,ECCENTRICITY,INCLINATION,RA_OF_ASC_NODE,ARG_OF_PERICENTER,MEAN_ANOMALY,BSTAR,MEAN_MOTION_DOT,MEAN_MOTION_DDOT,TLE_LINE0,TLE_LINE1,TLE_LINE2,SEMIMAJOR_AXIS,PERIOD,APOGEE,PERIGEE,DECAYED
53398.0,STARLINK-4512,PAYLOAD,2024-01-27 20:23:56,15.0883717,0.000169,53.2204,349.0538,112.327,247.7901,4.8853e-05,4.89e-06,0.0,0 STARLINK-4512,1 53398U 22097L   24027.84995901  .00000489  00000-0  48853-4 0  9991,2 53398  53.2204 349.0538 0001690 112.3270 247.7901 15.08837170 81504,6917.889,95.438,540.923,538.585,0.0
53398.0,STARLINK-4512,PAYLOAD,2024-01-28 07:31:38,15.08837451,0.0001586,53.2194,346.9644,114.4241,245.6917,3.3939e-06,-2.34e-06,0.0,0 STARLINK-4512,1 53398U 22097L   24028.31364099 -.00000234  00000-0  33939-5 0  9991,2 53398  53.2194 346.9644 0001586 114.4241 245.6917 15.08837451 82069,6917.888,95.438,540.85,538.656,0.0
53398.0,STARLINK-4512,PAYLOAD,2024-01-29 02:36:15,15.08846081,0.0001548,53.2187,343.3958,115.3613,244.754,1.8798e-05,1.1e-07,0.0,0 STARLINK-4512,1 53398U 22097L   24029.10851804  .00000011  00000-0  18798-4 0  9991,2 53398  53.2187 343.3958 0001548 115.3613 244.7540 15.08846081 81690,6917.862,95.437,540.798,538.656,0.0
53398.0,STARLINK-4512,PAYLOAD,2024-01-29 05:47:01,15.0884741,0.000161,53.2192,342.8009,111.5256,248.5908,0.00012552,1.711e-05,0.0,0 STARLINK-4512,1 53398U 22097L   24029.24099428  .00001711  00000-0  12552-3 0  9991,2 53398  53.2192 342.8009 0001610 111.5256 248.5908 15.08847410 82203,6917.858,95.437,540.837,538.609,0.0
53398.0,STARLINK-4512,PAYLOAD,2024-01-30 04:02:26,15.08843304,0.0001543,53.2188,338.6377,87.0722,273.0447,0.00012179,1.651e-05,0.0,0 STARLINK-4512,1 53398U 22097L   24030.16835844  .00001651  00000-0  12179-3 0  9992,2 53398  53.2188 338.6377 0001543  87.0722 273.0447 15.08843304 81858,6917.87,95.437,540.803,538.668,0.0
53398.0,STARLINK-4512,PAYLOAD,2024-01-30 05:37:49,15.08845895,0.0001446,53.2184,338.34,85.3916,274.7241,0.00013165,1.808e-05,0.0,0 STARLINK-4512,1 53398U 22097L   24030.23459649  .00001808  00000-0  13165-3 0  9995,2 53398  53.2184 338.3400 0001446  85.3916 274.7241 15.08845895 82359,6917.862,95.437,540.728,538.727,0.0
53398.0,STARLINK-4512,PAYLOAD,2024-01-31 05:28:35,15.08851066,0.000154,53.2195,333.8777,88.9362,271.1807,3.3697e-05,2.48e-06,0.0,0 STARLINK-4512,1 53398U 22097L   24031.22819415  .00000248  00000-0  33697-4 0  9996,2 53398  53.2195 333.8777 0001540  88.9362 271.1807 15.08851066 82016,6917.847,95.437,540.777,538.646,0.0
53398.0,STARLINK-4512,PAYLOAD,2024-01-31 19:47:04,15.08839019,0.0001367,53.218,331.2021,107.3418,252.7724,-5.9622e-05,-1.237e-05,0.0,0 STARLINK-4512,1 53398U 22097L   24031.82436324 -.00001237  00000-0 -59622-4 0  9993,2 53398  53.2180 331.2021 0001367 107.3418 252.7724 15.08839019 82106,6917.883,95.438,540.694,538.803,0.0
53398.0,STARLINK-4512,PAYLOAD,2024-02-01 02:08:37,15.08842757,0.0001682,53.2187,330.0161,94.9603,265.1581,-2.1264e-05,-6.27e-06,0.0,0 STARLINK-4512,1 53398U 22097L   24032.08932044 -.00000627  00000-0 -21264-4 0  9995,2 53398  53.2187 330.0161 0001682  94.9603 265.1581 15.08842757 82632,6917.872,95.437,540.901,538.573,0.0
53398.0,STARLINK-4512,PAYLOAD,2024-02-01 19:37:51,15.08850022,0.0001502,53.2187,326.7453,93.0983,267.0181,4.7352e-05,4.66e-06,0.0,0 STARLINK-4512,1 53398U 22097L   24032.81795420  .00000466  00000-0  47352-4 0  9996,2 53398  53.2187 326.7453 0001502  93.0983 267.0181 15.08850022 82259,6917.85,95.437,540.754,538.676,0.0
53398.0,STARLINK-4512,PAYLOAD,2024-02-02 01:59:23,15.08854055,0.0001584,53.2191,325.5575,83.6674,276.4499,9.246e-05,1.184e-05,0.0,0 STARLINK-4512,1 53398U 22097L   24033.08290963  .00001184  00000-0  92460-4 0  9996,2 53398  53.2191 325.5575 0001584  83.6674 276.4499 15.08854055 82782,6917.837,95.437,540.798,538.607,0.0
53398.0,STARLINK-4512,PAYLOAD,2024-02-02 22:39:25,15.08834108,0.0001609,53.2201,321.6962,85.4131,274.7044,6.9127e-05,8.12e-06,0.0,0 STARLINK-4512,1 53398U 22097L   24033.94404282  .00000812  00000-0  69127-4 0  9993,2 53398  53.2201 321.6962 0001609  85.4131 274.7044 15.08834108 82916,6917.898,95.438,540.876,538.65,0.0
53398.0,STARLINK-4512,PAYLOAD,2024-02-03 01:50:11,15.08833183,0.0001728,53.2198,321.1027,84.083,276.0359,5.351e-05,5.63e-06,0.0,0 STARLINK-4512,1 53398U 22097L   24034.07652495  .00000563  00000-0  53510-4 0  9991,2 53398  53.2198 321.1027 0001728  84.0830 276.0359 15.08833183 82445,6917.901,95.438,540.962,538.571,0.0
53398.0,STARLINK-4512,PAYLOAD,2024-02-03 05:00:57,15.08838265,0.0001444,53.2188,320.4995,94.9621,265.1536,4.3563e-06,-2.19e-06,0.0,0 STARLINK-4512,1 53398U 22097L   24034.20900162 -.00000219  00000-0  43563-5 0  9990,2 53398  53.2188 320.4995 0001444  94.9621 265.1536 15.08838265 82951,6917.886,95.438,540.75,538.752,0.0
53398.0,STARLINK-4512,PAYLOAD,2024-02-03 22:30:12,15.08840944,0.0001537,53.2181,317.2279,104.4828,255.6335,-7.6687e-05,-1.508e-05,0.0,0 STARLINK-4512,1 53398U 22097L   24034.93764272 -.00001508  00000-0 -76687-4 0  9995,2 53398  53.2181 317.2279 0001537 104.4828 255.6335 15.08840944 83063,6917.878,95.437,540.806,538.679,0.0
53398.0,STARLINK-4512,PAYLOAD,2024-02-04 01:40:58,15.08844373,0.0001618,53.2184,316.6328,105.2068,254.9103,-4.7034e-05,-1.037e-05,0.0,0 STARLINK-4512,1 53398U 22097L   24035.07011951 -.00001037  00000-0 -47034-4 0  9991,2 53398  53.2184 316.6328 0001618 105.2068 254.9103 15.08844373 82591,6917.867,95.437,540.851,538.613,0.0
53398.0,STARLINK-4512,PAYLOAD,2024-02-04 04:51:44,15.08847867,0.0001744,53.2183,316.0368,108.5972,251.521,-3.7831e-05,-8.9e-06,0.0,0 STARLINK-4512,1 53398U 22097L   24035.20259701 -.00000890  00000-0 -37831-4 0  9993,2 53398  53.2183 316.0368 0001744 108.5972 251.5210 15.08847867 83109,6917.856,95.437,540.928,538.515,0.0
53398.0,STARLINK-4512,PAYLOAD,2024-02-04 19:10:13,15.0883269,0.0001663,53.2185,313.3598,107.5674,252.55,8.6917e-05,1.095e-05,0.0,0 STARLINK-4512,1 53398U 22097L   24035.79876458  .00001095  00000-0  86917-4 0  9996,2 53398  53.2185 313.3598 0001663 107.5674 252.5500 15.08832690 82700,6917.903,95.438,540.918,538.617,0.0
53398.0,STARLINK-4512,PAYLOAD,2024-02-04 22:20:59,15.08833661,0.0001642,53.2184,312.7652,105.0735,255.0439,9.1467e-05,1.168e-05,0.0,0 STARLINK-4512,1 53398U 22097L   24035.93124434  .00001168  00000-0  91467-4 0  9999,2 53398  53.2184 312.7652 0001642 105.0735 255.0439 15.08833661 83216,6917.9,95.438,540.901,538.629,0.0
53398.0,STARLINK-4512,PAYLOAD,2024-02-05 11:04:04,15.088408,0.000152,53.2182,310.3863,83.4571,276.6594,0.00012431,1.691e-05,0.0,0 STARLINK-4512,1 53398U 22097L   24036.46116044  .00001691  00000-0  12431-3 0  9990,2 53398  53.2182 310.3863 0001520  83.4571 276.6594 15.08840800 82802,6917.878,95.438,540.794,538.691,0.0
53398.0,STARLINK-4512,PAYLOAD,2024-02-05 22:11:46,15.08839324,0.0001601,53.219,308.312,102.0575,258.0597,2.5772e-05,1.22e-06,0.0,0 STARLINK-4512,1 53398U 22097L   24036.92484685  .00000122  00000-0  25772-4 0  9991,2 53398  53.2190 308.3120 0001601 102.0575 258.0597 15.08839324 83364,6917.882,95.438,540.855,538.64,0.0
53398.0,STARLINK-4512,PAYLOAD,2024-02-06 02:57:55,15.08847325,0.0001507,53.2184,307.4121,91.3643,268.7521,0.00012843,1.757e-05,0.0,0 STARLINK-4512,1 53398U 22097L   24037.12355802  .00001757  00000-0  12843-3 0  9991,2 53398  53.2184 307.4121 0001507  91.3643 268.7521 15.08847325 83397,6917.858,95.437,540.766,538.68,0.0
53398.0,STARLINK-4512,PAYLOAD,2024-02-06 22:02:33,15.08846875,0.0001666,53.2182,303.8494,105.6966,254.421,-1.1381e-05,-4.69e-06,0.0,0 STARLINK-4512,1 53398U 22097L   24037.91844251 -.00000469  00000-0 -11381-4 0  9997,2 53398  53.2182 303.8494 0001666 105.6966 254.4210 15.08846875 83511,6917.859,95.437,540.877,538.572,0.0
53398.0,STARLINK-4512,PAYLOAD,2024-02-07 02:48:41,15.088554,0.0001381,53.2181,302.961,102.6352,257.4795,0.00017,2.42e-05,0.0,0 STARLINK-4512,1 53398U 22097L   24038.11715231  .00002420  00000-0  17000-3 0  9995,2 53398  53.2181 302.9610 0001381 102.6352 257.4795 15.08855400 83054,6917.833,95.437,540.654,538.743,0.0
53398.0,STARLINK-4512,PAYLOAD,2024-02-07 10:45:39,15.08835086,0.000162,53.2191,301.4715,80.1072,280.0103,-1.2206e-05,-4.82e-06,0.0,0 STARLINK-4512,1 53398U 22097L   24038.44837046 -.00000482  00000-0 -12206-4 0  9992,2 53398  53.2191 301.4715 0001620  80.1072 280.0103 15.08835086 83109,6917.895,95.438,540.881,538.64,0.0
53398.0,STARLINK-4512,PAYLOAD,2024-02-07 23:28:44,15.08836572,0.0001489,53.2181,299.0902,83.2751,276.841,-6.5222e-05,-1.326e-05,0.0,0 STARLINK-4512,1 53398U 22097L   24038.97829272 -.00001326  00000-0 -65222-4 0  9996,2 53398  53.2181 299.0902 0001489  83.2751 276.8410 15.08836572 83676,6917.891,95.438,540.786,538.726,0.0
53398.0,STARLINK-4512,PAYLOAD,2024-02-08 21:44:07,15.08850969,0.000138,53.2184,294.9243,87.9814,272.1336,2.7324e-05,1.47e-06,0.0,0 STARLINK-4512,1 53398U 22097L   24039.90564166  .00000147  00000-0  27324-4 0  9997,2 53398  53.2184 294.9243 0001380  87.9814 272.1336 15.08850969 83810,6917.847,95.437,540.667,538.757,0.0
53398.0,STARLINK-4512,PAYLOAD,2024-02-08 23:19:30,15.08853093,0.000152,53.2184,294.6268,87.7818,272.3348,5.1007e-05,5.24e-06,0.0,0 STARLINK-4512,1 53398U 22097L   24039.97187998  .00000524  00000-0  51007-4 0  9992,2 53398  53.2184 294.6268 0001520  87.7818 272.3348 15.08853093 83335,6917.84,95.437,540.757,538.654,0.0
53398.0,STARLINK-4512,PAYLOAD,2024-02-09 19:59:32,15.0883593,0.0001495,53.216,290.7634,78.5117,281.6043,0.00013156,1.806e-05,0.0,0 STARLINK-4512,1 53398U 22097L   24040.83300932  .00001806  00000-0  13156-3 0  9990,2 53398  53.2160 290.7634 0001495  78.5117 281.6043 15.08835930 83463,6917.893,95.438,540.792,538.724,0.0
53398.0,STARLINK-4512,PAYLOAD,2024-02-09 23:10:18,15.08841232,0.0001511,53.2167,290.1682,88.2542,271.8624,4.9559e-05,5.01e-06,0.0,0 STARLINK-4512,1 53398U 22097L   24040.96548825  .00000501  00000-0  49559-4 0  9997,2 53398  53.2167 290.1682 0001511  88.2542 271.8624 15.08841232 83970,6917.877,95.437,540.787,538.696,0.0
